IRIDIUM 159             
1 43578U 18061K   24108.17076878  .00000020  00000+0  14652-6 0  9997
2 43578  86.4014  27.2730 0002040  88.9789 271.1641 14.34217789300009
IRIDIUM 180             
1 43922U 19002A   24107.68187884  .00000549  00000+0  18912-3 0  9997
2 43922  86.3961 324.3949 0002147  89.2070 270.9372 14.34217395275541
IRIDIUM 176             
1 43923U 19002B   24107.67504740  .00002164  00000+0  33913-3 0  9994
2 43923  86.6084 324.4244 0002426  88.8112 271.3383 14.72257260282791
IRIDIUM 168             
1 43924U 19002C   24108.09415153  .00000550  00000+0  18946-3 0  9997
2 43924  86.3962 324.2775 0002087  90.2511 269.8924 14.34218716275587
IRIDIUM 173             
1 43925U 19002D   24107.66285739  .00000104  00000+0  30156-4 0  9998
2 43925  86.3957 324.3792 0002066  87.6041 272.5391 14.34218238275518
IRIDIUM 169             
1 43926U 19002E   24108.19447596  .00000923  00000+0  29536-3 0  9997
2 43926  86.4271 355.7610 0004370  78.0168 282.1520 14.38609241276503
IRIDIUM 172             
1 43927U 19002F   24107.65651463  .00000522  00000+0  17942-3 0  9991
2 43927  86.3958 324.3873 0002202  89.4633 270.6815 14.34219750275510
IRIDIUM 175             
1 43928U 19002G   24108.00908687  .00000954  00000+0  14734-3 0  9990
2 43928  86.1466 300.8763 0002227  88.6964 271.4508 14.72246114282832
